EUTELSAT 48D            
1 33460U 08065B   21035.55848792  .00000065  00000-0  00000-0 0  9995
2 33460   0.2263 100.9201 0004522 215.1160  42.8240  0.99773630 44319
FENGYUN 2E              
1 33463U 08066A   21035.08174116 -.00000210  00000-0  00000-0 0  9992
2 33463   4.8256  67.7601 0004094 318.3626 224.8027  1.00269639 44446
EXPRESS-AM44            
1 33595U 09007A   21035.40818028 -.00000091  00000-0  00000-0 0  9994
2 33595   0.0387 258.1145 0000533 147.4399 225.1453  1.00271488 43919
NSS-9                   
1 33749U 09008A   21035.61359914  .00000069  00000-0  00000-0 0  9997
2 33749   0.0416 282.8028 0002100  37.6322 218.4905  1.00272312 43896
EUTELSAT 33E            
1 33750U 09008B   21035.56058159  .00000153  00000-0  00000-0 0  9994
2 33750   0.0553 357.3803 0003772 314.4352  57.9886  1.00268664 43804
TELSTAR 11N             
1 34111U 09009A   21035.40285889 -.00000253  00000-0  00000-0 0  9994
2 34111   0.0193  93.1649 0002324 214.0794 294.9952  1.00267379 26592
EUTELSAT 10A            
1 34710U 09016A   21035.55595809  .00000065  00000-0  00000-0 0  9999
2 34710   0.0669   0.8424 0005423 316.8014  27.4093  1.00269894 21617
WGS F2 (USA 204)        
1 34713U 09017A   21035.56537956  .00000065  00000-0  00000-0 0  9993
2 34713   0.0610  99.5323 0000972 285.6657  10.7468  1.00271182 25976
SES-7 (PROTOSTAR 2)     
1 34941U 09027A   21035.59988523 -.00000348  00000-0  00000-0 0  9995
2 34941   0.0101  53.9209 0002144 198.1877 207.0510  1.00270590 42987
MEASAT-3A               
1 35362U 09032A   21035.24077257 -.00000244  00000-0  00000-0 0  9999
2 35362   0.0521 246.7465 0002049  40.1186  25.9107  1.00271897 42609
GOES 14                 
1 35491U 09033A   21035.60551375 -.00000096  00000-0  00000-0 0  9996
2 35491   0.0709 215.4805 0011412  11.8844  21.3233  1.00270583 42488
FM-5                    
1 35493U 09034A   21035.32844352 -.00000202  00000-0  00000-0 0  9997
2 35493   0.0148  13.0565 0000842  20.6800 133.0315  1.00269291 27015
TERRESTAR-1             
1 35496U 09035A   21035.60056694 -.00000059  00000-0  00000-0 0  9996
2 35496   2.6639  25.3703 0002820 291.5485 283.2389  1.00272134 42495
ASIASAT 5               
1 35696U 09042A   21035.57401591 -.00000309  00000-0  00000-0 0  9990
2 35696   0.0449 262.1061 0001466  36.6425 143.2917  1.00268555 42048
JCSAT-RA (JCSAT-12)     
1 35755U 09044A   21035.63233758 -.00000034  00000-0  00000-0 0  9998
2 35755   0.0185 126.3061 0001830 196.8882 208.3255  1.00273645 41978
OPTUS D3                
1 35756U 09044B   21035.62364670 -.00000150  00000-0  00000-0 0  9995
2 35756   0.0413 332.7271 0004172 356.8165 185.9435  1.00271697 41923
PALAPA D                
1 35812U 09046A   21035.31215238 -.00000361  00000-0  00000-0 0  9995
2 35812   0.7182  94.6223 0003728 273.8356 351.5247  1.00272449 42023
NIMIQ 5                 
1 35873U 09050A   21035.53947046 -.00000259  00000-0  00000-0 0  9996
2 35873   0.0447 270.7675 0002708  59.6009 286.0259  1.00270494 41715
AMAZONAS 2              
1 35942U 09054A   21035.54173861 -.00000285  00000-0  00000-0 0  9993
2 35942   0.0242 184.8490 0000634 112.6353 331.4235  1.00269860 41548
COMSATBW-1              
1 35943U 09054B   21035.42292316  .00000022  00000-0  00000-0 0  9996
2 35943   0.0178 113.1967 0001744 224.1825  12.6714  1.00269285 41661
NSS-12                  
1 36032U 09058A   21035.56529233  .00000069  00000-0  00000-0 0  9997
2 36032   0.0358 278.3463 0002852  50.8695  66.2050  1.00272377 41277
THOR 6                  
1 36033U 09058B   21035.33839148 -.00000012  00000-0  00000-0 0  9991
2 36033   0.0230 198.8386 0002122 148.1633 268.6555  1.00271037 41371
INTELSAT 14 (IS-14)     
1 36097U 09064A   21035.40137587 -.00000276  00000-0  00000-0 0  9996
2 36097   0.0074 272.7160 0002491  50.1434 271.3780  1.00272961 41041
EUTELSAT 36B            
1 36101U 09065A   21035.56110500  .00000153  00000-0  00000-0 0  9999
2 36101   0.0671   0.2252 0004598 323.6321  48.9744  1.00274537 41071
INTELSAT 15 (IS-15)     
1 36106U 09067A   21035.57096266 -.00000188  00000-0  00000-0 0  9998
2 36106   0.0160  83.4845 0002198 247.3857  94.7437  1.00272168 21658
WGS F3 (USA 211)        
1 36108U 09068A   21035.40800580 -.00000099  00000-0  00000-0 0  9996
2 36108   0.0174  92.8231 0001222 285.2674 251.5585  1.00270321 26968
DIRECTV 12              
1 36131U 09075A   21035.60648472 -.00000106  00000-0  00000-0 0  9991
2 36131   0.0415 254.3261 0000150 104.9463 251.3084  1.00271315 26924
BEIDOU 3                
1 36287U 10001A   21035.43836392 -.00000284  00000-0  00000-0 0  9992
2 36287   1.6813  40.5779 0002895 101.5537 290.9144  1.00270530 40534
RADUGA-1M 2             
1 36358U 10002A   21035.57087543 -.00000187  00000-0  00000-0 0  9995
2 36358   0.0578 255.8695 0002938  94.0422  75.5298  1.00272147 30452
SDO                     
1 36395U 10005A   21035.37673494 -.00000083  00000-0  00000-0 0  9998
2 36395  30.7246 117.4142 0001087 268.9769 141.6739  1.00267824 40424
INTELSAT 16 (IS-16)     
1 36397U 10006A   21035.53877258 -.00000247  00000-0  00000-0 0  9995
2 36397   0.0162  86.7146 0002011 233.1938 292.7478  1.00271886 40190
GOES 15                 
1 36411U 10008A   21035.56257065  .00000046  00000-0  00000-0 0  9991
2 36411   0.4369  98.6187 0002989 315.1260 156.2782  1.00282725 40039
ECHOSTAR 14             
1 36499U 10010A   21035.48141394 -.00000002  00000-0  00000-0 0  9991
2 36499   0.0109 100.1993 0002626 212.3390 236.7074  1.00270781 26926
SES-1                   
1 36516U 10016A   21035.60746000 -.00000117  00000-0  00000-0 0  9993
2 36516   0.0511 278.1069 0002681  50.7738 283.7596  1.00271263 39408
ASTRA 3B                
1 36581U 10021A   21035.55866238  .00000134  00000-0  00000-0 0  9999
2 36581   0.0387  54.7848 0002686 264.1410  40.5978  1.00269029 39238
COMSATBW-2              
1 36582U 10021B   21035.29285449  .00000086  00000-0  00000-0 0  9996
2 36582   0.0503 146.8871 0001736 181.6130 284.7387  1.00272056 39314
BADR-5                  
1 36592U 10025A   21035.55909856  .00000142  00000-0  00000-0 0  9998
2 36592   0.0331 114.0816 0000516 177.5271  70.5412  1.00270569 33574
COMS 1                  
1 36744U 10032A   21035.43592132 -.00000347  00000-0  00000-0 0  9995
2 36744   0.0223 139.8559 0000860 196.4859  83.5464  1.00270129 31443
ARABSAT-5A              
1 36745U 10032B   21035.56005816  .00000150  00000-0  00000-0 0  9999
2 36745   0.0714  54.5579 0002116 290.1163  22.3293  1.00266870 39009
ECHOSTAR 15             
1 36792U 10034A   21035.32626567 -.00000283  00000-0  00000-0 0  9997
2 36792   0.0051 272.9035 0001251  51.6555 225.8872  1.00267778 38697
BEIDOU 5                
1 36828U 10036A   21035.16988545 -.00000070  00000-0  00000-0 0  9992
2 36828  54.1730 180.8205 0102244 233.1980 256.2727  1.00243363 38578
NILESAT 201             
1 36830U 10037A   21035.40896539 -.00000060  00000-0  00000-0 0  9993
2 36830   0.0535 221.3341 0003990 116.0653 297.5974  1.00271814 38721
RASCOM-QAF 1R           
1 36831U 10037B   21035.33917661  .00000016  00000-0  00000-0 0  9996
2 36831   0.0120  94.5865 0005340 216.2307 308.8870  1.00273063 38654
AEHF-1 (USA 214)        
1 36868U 10039A   21035.33943831  .00000022  00000-0  00000-0 0  9993
2 36868   3.3040  93.8811 0002589 296.7637 230.3301  1.00266405 34011
CHINASAT 6A (ZX 6A)     
1 37150U 10042A   21035.10124547 -.00000356  00000-0  00000-0 0  9993
2 37150   0.0460 128.9149 0002968  34.7115 132.3460  1.00268411 38258
QZS-1 (MICHIBIKI-1)     
1 37158U 10045A   21034.62962016 -.00000166  00000-0  00000-0 0  9990
2 37158  41.8375 140.3395 0760965 270.6442  88.9574  1.00256625 38095
XM-5                    
1 37185U 10053A   21035.37865411 -.00000206  00000-0  00000-0 0  9998
2 37185   0.0177 165.2519 0001299  39.1846 341.4033  1.00266472 37840
BSAT-3B                 
1 37207U 10056B   21035.60909240 -.00000353  00000-0  00000-0 0  9994
2 37207   0.0917 296.9500 0004260  39.7570 127.3811  1.00272537 32502
BEIDOU 6                
1 37210U 10057A   21035.62659756 -.00000115  00000-0  00000-0 0  9991
2 37210   0.9076  52.0839 0005338 196.0355 272.5260  1.00271882 37645
SKYTERRA 1              
1 37218U 10061A   21035.60734351 -.00000120  00000-0  00000-0 0  9993
2 37218   2.1244  10.8499 0002538 352.4428 249.0100  1.00270956 37559
ZHONGXING-20A           
1 37234U 10064A   21035.09852325 -.00000354  00000-0  00000-0 0  9998
2 37234   1.4187  94.2930 0002523 248.3027 313.6790  1.00266345 37384
HYLAS 1                 
1 37237U 10065A   21035.47966161 -.00000366  00000-0  00000-0 0  9991
2 37237   0.6853  95.0614 0002214 221.4308 108.1901  1.00267604 37332
INTELSAT 17 (IS-17)     
1 37238U 10065B   21035.42353381 -.00000004  00000-0  00000-0 0  9990
2 37238   0.0338 231.6244 0002790  96.2039  25.4130  1.00271915 33757
BEIDOU 7                
1 37256U 10068A   21035.42546116 -.00000211  00000-0  00000-0 0  9993
2 37256  51.0873 295.5812 0081937 216.8076 252.3121  1.00298485 37169
EUTELSAT KA-SAT 9A      
1 37258U 10069A   21035.34039791  .00000059  00000-0  00000-0 0  9992
2 37258   0.0432 280.3017 0000820 220.2908 125.6442  1.00271605 24361
HISPASAT 30W-5          
1 37264U 10070A   21035.40442912 -.00000219  00000-0  00000-0 0  9990
2 37264   0.0227 121.0983 0002350 228.9350 260.3091  1.00269958 33544
KOREASAT 6              
1 37265U 10070B   21035.47966161 -.00000365  00000-0  00000-0 0  9997
2 37265   0.0151  78.0475 0001643 290.6573  54.7982  1.00268303 37120
BEIDOU 8                
1 37384U 11013A   21035.28114461 -.00000183  00000-0  00000+0 0  9991
2 37384  59.5906  59.2443 0055111 206.5329  88.4454  1.00291709 36021
INTELSAT NEW DAWN       
1 37392U 11016A   21035.21160750  .00000153  00000-0  00000-0 0  9995
2 37392   0.0188 161.2697 0000480  89.2503 353.0349  1.00271312 33655
